start=new Date('2022-12-19T00:00:00.000Z').valueOf();
sats=[{"OBJECT_NAME":"STARLINK-2738","GP_ID":"220868727","DECAY_DATE":null,"RA_OF_ASC_NODE":"355.2929","ELEMENT_SET_NO":"999","PERIAPSIS":"545.438","CENTER_NAME":"EARTH","COUNTRY_CODE":"US","TLE_LINE2":"2 48668  53.0563 355.2929 0002658  57.1626 302.9618 15.06378786 86452","ARG_OF_PERICENTER":"57.1626","MEAN_MOTION_DDOT":"0.0000000000000","CLASSIFICATION_TYPE":"U","OBJECT_ID":"2021-044AG","TIME_SYSTEM":"UTC","SITE":"AFETR","RCS_SIZE":"LARGE","FILE":"3709623","SEMIMAJOR_AXIS":"6925.414","MEAN_MOTION_DOT":"-0.00001471","BSTAR":"-0.00007988000000","EPHEMERIS_TYPE":"0","OBJECT_TYPE":"PAYLOAD","EPOCH":"2022-12-18T17:00:16.388064","MEAN_ANOMALY":"302.9618","PERIOD":"95.593","REF_FRAME":"TEME","TLE_LINE1":"1 48668U 21044AG  22352.70852301 -.00001471  00000-0 -79880-4 0  9994","INCLINATION":"53.0563","APOAPSIS":"549.119","MEAN_MOTION":"15.06378786","REV_AT_EPOCH":"8645","NORAD_CAT_ID":"48668","LAUNCH_DATE":"2021-05-26","ECCENTRICITY":"0.00026580","MEAN_ELEMENT_THEORY":"SGP4"},{"INCLINATION":"53.0567","APOAPSIS":"548.310","MEAN_MOTION":"15.06392556","REF_FRAME":"TEME","TLE_LINE1":"1 48669U 21044AH  22352.70482225  .00000304  00000-0  39280-4 0  9991","NORAD_CAT_ID":"48669","LAUNCH_DATE":"2021-05-26","ECCENTRICITY":"0.00015510","MEAN_ELEMENT_THEORY":"SGP4","REV_AT_EPOCH":"8644","EPHEMERIS_TYPE":"0","BSTAR":"0.00003928000000","SITE":"AFETR","FILE":"3709623","RCS_SIZE":"LARGE","SEMIMAJOR_AXIS":"6925.371","MEAN_MOTION_DOT":"0.00000304","PERIOD":"95.593","OBJECT_TYPE":"PAYLOAD","EPOCH":"2022-12-18T16:54:56.642400","MEAN_ANOMALY":"302.7309","PERIAPSIS":"546.162","ELEMENT_SET_NO":"999","CENTER_NAME":"EARTH","COUNTRY_CODE":"US","TLE_LINE2":"2 48669  53.0567 355.3029 0001551  57.3829 302.7309 15.06392556 86442","RA_OF_ASC_NODE":"355.3029","OBJECT_ID":"2021-044AH","TIME_SYSTEM":"UTC","ARG_OF_PERICENTER":"57.3829","MEAN_MOTION_DDOT":"0.0000000000000","CLASSIFICATION_TYPE":"U","DECAY_DATE":null,"OBJECT_NAME":"STARLINK-2707","GP_ID":"220867478"},{"ARG_OF_PERICENTER":"53.5376","MEAN_MOTION_DDOT":"0.0000000000000","CLASSIFICATION_TYPE":"U","OBJECT_ID":"2021-044AJ","TIME_SYSTEM":"UTC","RA_OF_ASC_NODE":"355.9163","CENTER_NAME":"EARTH","PERIAPSIS":"545.962","ELEMENT_SET_NO":"999","TLE_LINE2":"2 48670  53.0558 355.9163 0001851  53.5376 306.5783 15.06389967 86425","COUNTRY_CODE":"US","OBJECT_NAME":"STARLINK-2763","GP_ID":"220868228","DECAY_DATE":null,"REV_AT_EPOCH":"8642","ECCENTRICITY":"0.00018510","LAUNCH_DATE":"2021-05-26","NORAD_CAT_ID":"48670","MEAN_ELEMENT_THEORY":"SGP4","REF_FRAME":"TEME","TLE_LINE1":"1 48670U 21044AJ  22352.56844108  .00000885  00000-0  78334-4 0  9996","INCLINATION":"53.0558","MEAN_MOTION":"15.06389967","APOAPSIS":"548.526","EPOCH":"2022-12-18T13:38:33.309312","OBJECT_TYPE":"PAYLOAD","MEAN_ANOMALY":"306.5783","PERIOD":"95.593","SITE":"AFETR","MEAN_MOTION_DOT":"0.00000885","SEMIMAJOR_AXIS":"6925.379","FILE":"3709623","RCS_SIZE":"LARGE","EPHEMERIS_TYPE":"0","BSTAR":"0.00007833400000"},{"REV_AT_EPOCH":"8643","NORAD_CAT_ID":"48671","LAUNCH_DATE":"2021-05-26","ECCENTRICITY":"0.00021180","MEAN_ELEMENT_THEORY":"SGP4","REF_FRAME":"TEME","TLE_LINE1":"1 48671U 21044AK  22352.63110250  .00000299  00000-0  38986-4 0  9997","INCLINATION":"53.0563","APOAPSIS":"548.693","MEAN_MOTION":"15.06395729","OBJECT_TYPE":"PAYLOAD","EPOCH":"2022-12-18T15:08:47.256000","MEAN_ANOMALY":"310.7665","PERIOD":"95.592","SITE":"AFETR","SEMIMAJOR_AXIS":"6925.362","FILE":"3709623","RCS_SIZE":"LARGE","MEAN_MOTION_DOT":"0.00000299","BSTAR":"0.00003898600000","EPHEMERIS_TYPE":"0","ARG_OF_PERICENTER":"49.3507","MEAN_MOTION_DDOT":"0.0000000000000","CLASSIFICATION_TYPE":"U","OBJECT_ID":"2021-044AK","TIME_SYSTEM":"UTC","RA_OF_ASC_NODE":"355.6476","ELEMENT_SET_NO":"999","PERIAPSIS":"545.760","CENTER_NAME":"EARTH","COUNTRY_CODE":"US","TLE_LINE2":"2 48671  53.0563 355.6476 0002118  49.3507 310.7665 15.06395729 86432","OBJECT_NAME":"STARLINK-2745","GP_ID":"220868480","DECAY_DATE":null},{"MEAN_ELEMENT_THEORY":"SGP4","NORAD_CAT_ID":"48672","ECCENTRICITY":"0.00018050","LAUNCH_DATE":"2021-05-26","REV_AT_EPOCH":"8646","APOAPSIS":"548.461","MEAN_MOTION":"15.06400865","INCLINATION":"53.0539","TLE_LINE1":"1 48672U 21044AL  22352.82645519  .00002059  00000-0  15707-3 0  9991","REF_FRAME":"TEME","PERIOD":"95.592","MEAN_ANOMALY":"312.8355","OBJECT_TYPE":"PAYLOAD","EPOCH":"2022-12-18T19:50:05.728416","EPHEMERIS_TYPE":"0","BSTAR":"0.00015707000000","RCS_SIZE":"LARGE","FILE":"3709623","SEMIMAJOR_AXIS":"6925.346","MEAN_MOTION_DOT":"0.00002059","SITE":"AFETR","TIME_SYSTEM":"UTC","OBJECT_ID":"2021-044AL","MEAN_MOTION_DDOT":"0.0000000000000","CLASSIFICATION_TYPE":"U","ARG_OF_PERICENTER":"47.2786","COUNTRY_CODE":"US","TLE_LINE2":"2 48672  53.0539 354.7677 0001805  47.2786 312.8355 15.06400865 86467","ELEMENT_SET_NO":"999","PERIAPSIS":"545.961","CENTER_NAME":"EARTH","RA_OF_ASC_NODE":"354.7677","DECAY_DATE":null,"GP_ID":"220869227","OBJECT_NAME":"STARLINK-2705"},{"SITE":"AFETR","MEAN_MOTION_DOT":"-0.00001205","FILE":"3709077","SEMIMAJOR_AXIS":"6925.377","RCS_SIZE":"LARGE","EPHEMERIS_TYPE":"0","BSTAR":"-0.00006202400000","EPOCH":"2022-12-18T11:47:05.935488","OBJECT_TYPE":"PAYLOAD","MEAN_ANOMALY":"305.4320","PERIOD":"95.593","REF_FRAME":"TEME","TLE_LINE1":"1 48673U 21044AM  22352.49104092 -.00001205  00000-0 -62024-4 0  9990","INCLINATION":"53.0545","MEAN_MOTION":"15.06390783","APOAPSIS":"548.560","REV_AT_EPOCH":"8731","ECCENTRICITY":"0.00019040","LAUNCH_DATE":"2021-05-26","NORAD_CAT_ID":"48673","MEAN_ELEMENT_THEORY":"SGP4","GP_ID":"220833911","OBJECT_NAME":"STARLINK-2711","DECAY_DATE":null,"RA_OF_ASC_NODE":"356.2693","CENTER_NAME":"EARTH","PERIAPSIS":"545.923","ELEMENT_SET_NO":"999","TLE_LINE2":"2 48673  53.0545 356.2693 0001904  54.6847 305.4320 15.06390783 87312","COUNTRY_CODE":"US","ARG_OF_PERICENTER":"54.6847","MEAN_MOTION_DDOT":"0.0000000000000","CLASSIFICATION_TYPE":"U","OBJECT_ID":"2021-044AM","TIME_SYSTEM":"UTC"},{"TLE_LINE2":"2 48674  53.0577 355.0965 0002089  51.6627 308.4550 15.06392249 86456","COUNTRY_CODE":"US","CENTER_NAME":"EARTH","ELEMENT_SET_NO":"999","PERIAPSIS":"545.791","RA_OF_ASC_NODE":"355.0965","TIME_SYSTEM":"UTC","OBJECT_ID":"2021-044AN","MEAN_MOTION_DDOT":"0.0000000000000","CLASSIFICATION_TYPE":"U","ARG_OF_PERICENTER":"51.6627","DECAY_DATE":null,"OBJECT_NAME":"STARLINK-2712","GP_ID":"220867729","MEAN_MOTION":"15.06392249","APOAPSIS":"548.684","INCLINATION":"53.0577","TLE_LINE1":"1 48674U 21044AN  22352.75179286  .00000342  00000-0  41913-4 0  9990","REF_FRAME":"TEME","MEAN_ELEMENT_THEORY":"SGP4","LAUNCH_DATE":"2021-05-26","ECCENTRICITY":"0.00020890","NORAD_CAT_ID":"48674","REV_AT_EPOCH":"8645","BSTAR":"0.00004191300000","EPHEMERIS_TYPE":"0","MEAN_MOTION_DOT":"0.00000342","FILE":"3709623","SEMIMAJOR_AXIS":"6925.372","RCS_SIZE":"LARGE","SITE":"AFETR","PERIOD":"95.593","MEAN_ANOMALY":"308.4550","OBJECT_TYPE":"PAYLOAD","EPOCH":"2022-12-18T18:02:34.903104"},{"RA_OF_ASC_NODE":"355.1200","CENTER_NAME":"EARTH","PERIAPSIS":"545.546","ELEMENT_SET_NO":"999","TLE_LINE2":"2 48675  53.0570 355.1200 0002409  42.3659 317.7516 15.06399713 86459","COUNTRY_CODE":"US","ARG_OF_PERICENTER":"42.3659","CLASSIFICATION_TYPE":"U","MEAN_MOTION_DDOT":"0.0000000000000","OBJECT_ID":"2021-044AP","TIME_SYSTEM":"UTC","OBJECT_NAME":"STARLINK-2737","GP_ID":"220868980","DECAY_DATE":null,"REF_FRAME":"TEME","TLE_LINE1":"1 48675U 21044AP  22352.74904985  .00001272  00000-0  10430-3 0  9994","INCLINATION":"53.0570","MEAN_MOTION":"15.06399713","APOAPSIS":"548.883","REV_AT_EPOCH":"8645","LAUNCH_DATE":"2021-05-26","ECCENTRICITY":"0.00024090","NORAD_CAT_ID":"48675","MEAN_ELEMENT_THEORY":"SGP4","SITE":"AFETR","MEAN_MOTION_DOT":"0.00001272","RCS_SIZE":"MEDIUM","FILE":"3709623","SEMIMAJOR_AXIS":"6925.349","BSTAR":"0.00010430000000","EPHEMERIS_TYPE":"0","OBJECT_TYPE":"PAYLOAD","EPOCH":"2022-12-18T17:58:37.907040","MEAN_ANOMALY":"317.7516","PERIOD":"95.592"},{"PERIAPSIS":"546.057","ELEMENT_SET_NO":"999","CENTER_NAME":"EARTH","COUNTRY_CODE":"US","TLE_LINE2":"2 48676  53.0550 355.1311 0001656  67.0950 293.0213 15.06403254 86458","RA_OF_ASC_NODE":"355.1311","OBJECT_ID":"2021-044AQ","TIME_SYSTEM":"UTC","ARG_OF_PERICENTER":"67.0950","MEAN_MOTION_DDOT":"0.0000000000000","CLASSIFICATION_TYPE":"U","DECAY_DATE":null,"GP_ID":"220868728","OBJECT_NAME":"STARLINK-2746","INCLINATION":"53.0550","APOAPSIS":"548.350","MEAN_MOTION":"15.06403254","REF_FRAME":"TEME","TLE_LINE1":"1 48676U 21044AQ  22352.74536028  .00001453  00000-0  11644-3 0  9993","NORAD_CAT_ID":"48676","ECCENTRICITY":"0.00016560","LAUNCH_DATE":"2021-05-26","MEAN_ELEMENT_THEORY":"SGP4","REV_AT_EPOCH":"8645","BSTAR":"0.00011644000000","EPHEMERIS_TYPE":"0","SITE":"AFETR","FILE":"3709623","SEMIMAJOR_AXIS":"6925.339","RCS_SIZE":"LARGE","MEAN_MOTION_DOT":"0.00001453","PERIOD":"95.592","OBJECT_TYPE":"PAYLOAD","EPOCH":"2022-12-18T17:53:19.128192","MEAN_ANOMALY":"293.0213"},{"ARG_OF_PERICENTER":"46.9969","MEAN_MOTION_DDOT":"0.0000000000000","CLASSIFICATION_TYPE":"U","OBJECT_ID":"2021-044AR","TIME_SYSTEM":"UTC","RA_OF_ASC_NODE":"355.1517","PERIAPSIS":"545.866","ELEMENT_SET_NO":"999","CENTER_NAME":"EARTH","COUNTRY_CODE":"US","TLE_LINE2":"2 48677  53.0558 355.1517 0001954  46.9969 313.1183 15.06398207 86453","GP_ID":"220867479","OBJECT_NAME":"STARLINK-2719","DECAY_DATE":null,"REV_AT_EPOCH":"8645","NORAD_CAT_ID":"48677","LAUNCH_DATE":"2021-05-26","ECCENTRICITY":"0.00019540","MEAN_ELEMENT_THEORY":"SGP4","REF_FRAME":"TEME","TLE_LINE1":"1 48677U 21044AR  22352.74073334  .00001639  00000-0  12894-3 0  9994","INCLINATION":"53.0558","APOAPSIS":"548.572","MEAN_MOTION":"15.06398207","EPOCH":"2022-12-18T17:46:39.360576","OBJECT_TYPE":"PAYLOAD","MEAN_ANOMALY":"313.1183","PERIOD":"95.592","SITE":"AFETR","FILE":"3709623","SEMIMAJOR_AXIS":"6925.354","RCS_SIZE":"LARGE","MEAN_MOTION_DOT":"0.00001639","BSTAR":"0.00012894000000","EPHEMERIS_TYPE":"0"}];
